[{"OBJECT_NAME":"STARLINK-4551","OBJECT_ID":"2022-101BA","EPOCH":"2026-03-09T04:42:35.477280","MEAN_MOTION":15.08832018,"ECCENTRICITY":0.00014573,"INCLINATION":53.2187,"RA_OF_ASC_NODE":56.1278,"ARG_OF_PERICENTER":95.4455,"MEAN_ANOMALY":264.6704,"EPHEMERIS_TYPE":0,"CLASSIFICATION_TYPE":"U","NORAD_CAT_ID":53575,"ELEMENT_SET_NO":999,"REV_AT_EPOCH":19706,"BSTAR":4.01565e-7,"MEAN_MOTION_DOT":-2.82e-6,"MEAN_MOTION_DDOT":0},{"OBJECT_NAME":"OBJECT K","OBJECT_ID":"2017-042K","EPOCH":"2026-03-09T21:28:20.621568","MEAN_MOTION":15.07994228,"ECCENTRICITY":0.00097557,"INCLINATION":97.4104,"RA_OF_ASC_NODE":233.8721,"ARG_OF_PERICENTER":49.2775,"MEAN_ANOMALY":310.9299,"EPHEMERIS_TYPE":0,"CLASSIFICATION_TYPE":"U","NORAD_CAT_ID":42834,"ELEMENT_SET_NO":999,"REV_AT_EPOCH":47201,"BSTAR":0.00042776846,"MEAN_MOTION_DOT":6.528e-5,"MEAN_MOTION_DDOT":0}]
